{
  "type": "FeatureCollection",
  "features": [
    {
      "type": "Feature",
      "properties": {
        "norad_id": 28899,
        "name": "INMARSAT 4-F2 (SOUTHPAN/PRN 122)",
        "group": "gnss",
        "lat": 4.755804134170739,
        "lon": 122.55918367274488,
        "alt_km": 35794.56570723956,
        "timestamp": "2025-12-02T17:49:12.269303+00:00",
        "meta_object_name": "INMARSAT 4-F2 (SOUTHPAN/PRN 122)",
        "meta_object_id": "2005-044A",
        "meta_epoch": "2025-12-01T23:03:25.200576",
        "meta_mean_motion": 1.00273188,
        "meta_eccentricity": 0.0003522,
        "meta_inclination": 4.8373,
        "meta_ra_of_asc_node": 43.6514,
        "meta_arg_of_pericenter": 208.1176,
        "meta_mean_anomaly": 308.6606,
        "meta_ephemeris_type": 0,
        "meta_classification_type": "U",
        "meta_norad_cat_id": 28899,
        "meta_element_set_no": 999,
        "meta_rev_at_epoch": 7354,
        "meta_bstar": 0,
        "meta_mean_motion_dot": -2.41e-06,
        "meta_mean_motion_ddot": 0,
        "tle_line1": "1 28899U 05044A   25335.96070834 -.00000241  00000+0  00000+0 0  9990",
        "tle_line2": "2 28899   4.8373  43.6514 0003522 208.1176 308.6606  1.00273188 73541"
      },
      "geometry": {
        "type": "Point",
        "coordinates": [
          122.55918367274488,
          4.755804134170739
        ]
      }
    },
    {
      "type": "Feature",
      "properties": {
        "norad_id": 29486,
        "name": "GPS BIIRM-2 (PRN 31)",
        "group": "gnss",
        "lat": 33.58326315923152,
        "lon": -48.95224155977355,
        "alt_km": 20153.53769157876,
        "timestamp": "2025-12-02T17:49:12.269316+00:00",
        "meta_object_name": "GPS BIIRM-2 (PRN 31)",
        "meta_object_id": "2006-042A",
        "meta_epoch": "2025-12-01T13:45:36.640800",
        "meta_mean_motion": 2.00554492,
        "meta_eccentricity": 0.01073693,
        "meta_inclination": 54.6925,
        "meta_ra_of_asc_node": 159.184,
        "meta_arg_of_pericenter": 51.6942,
        "meta_mean_anomaly": 320.2253,
        "meta_ephemeris_type": 0,
        "meta_classification_type": "U",
        "meta_norad_cat_id": 29486,
        "meta_element_set_no": 999,
        "meta_rev_at_epoch": 14043,
        "meta_bstar": 0,
        "meta_mean_motion_dot": 1.26e-06,
        "meta_mean_motion_ddot": 0,
        "tle_line1": "1 29486U 06042A   25335.57334075  .00000126  00000+0  00000+0 0  9990",
        "tle_line2": "2 29486  54.6925 159.1840 0107369  51.6942 320.2253  2.00554492140433"
      },
      "geometry": {
        "type": "Point",
        "coordinates": [
          -48.95224155977355,
          33.58326315923152
        ]
      }
    },
    {
      "type": "Feature",
      "properties": {
        "norad_id": 29601,
        "name": "GPS BIIRM-3 (PRN 12)",
        "group": "gnss",
        "lat": -11.425010530910672,
        "lon": 49.93712944240797,
        "alt_km": 20247.78850416162,
        "timestamp": "2025-12-02T17:49:12.269329+00:00",
        "meta_object_name": "GPS BIIRM-3 (PRN 12)",
        "meta_object_id": "2006-052A",
        "meta_epoch": "2025-12-01T23:28:25.341312",
        "meta_mean_motion": 2.0057269,
        "meta_eccentricity": 0.0087496,
        "meta_inclination": 54.9731,
        "meta_ra_of_asc_node": 221.8254,
        "meta_arg_of_pericenter": 87.3285,
        "meta_mean_anomaly": 273.7543,
        "meta_ephemeris_type": 0,
        "meta_classification_type": "U",
        "meta_norad_cat_id": 29601,
        "meta_element_set_no": 999,
        "meta_rev_at_epoch": 13945,
        "meta_bstar": 0,
        "meta_mean_motion_dot": 5.5e-07,
        "meta_mean_motion_ddot": 0,
        "tle_line1": "1 29601U 06052A   25335.97807108  .00000055  00000+0  00000+0 0  9997",
        "tle_line2": "2 29601  54.9731 221.8254 0087496  87.3285 273.7543  2.00572690139454"
      },
      "geometry": {
        "type": "Point",
        "coordinates": [
          49.93712944240797,
          -11.425010530910672
        ]
      }
    },
    {
      "type": "Feature",
      "properties": {
        "norad_id": 32260,
        "name": "GPS BIIRM-4 (PRN 15)",
        "group": "gnss",
        "lat": -22.60410997010955,
        "lon": 70.52342994153065,
        "alt_km": 20352.827912171124,
        "timestamp": "2025-12-02T17:49:12.269341+00:00",
        "meta_object_name": "GPS BIIRM-4 (PRN 15)",
        "meta_object_id": "2007-047A",
        "meta_epoch": "2025-12-02T06:48:08.706240",
        "meta_mean_motion": 2.00564846,
        "meta_eccentricity": 0.0164395,
        "meta_inclination": 53.948,
        "meta_ra_of_asc_node": 88.1904,
        "meta_arg_of_pericenter": 85.1225,
        "meta_mean_anomaly": 276.7305,
        "meta_ephemeris_type": 0,
        "meta_classification_type": "U",
        "meta_norad_cat_id": 32260,
        "meta_element_set_no": 999,
        "meta_rev_at_epoch": 13286,
        "meta_bstar": 0,
        "meta_mean_motion_dot": -1.3e-07,
        "meta_mean_motion_ddot": 0,
        "tle_line1": "1 32260U 07047A   25336.28343410 -.00000013  00000+0  00000+0 0  9998",
        "tle_line2": "2 32260  53.9480  88.1904 0164395  85.1225 276.7305  2.00564846132860"
      },
      "geometry": {
        "type": "Point",
        "coordinates": [
          70.52342994153065,
          -22.60410997010955
        ]
      }
    },
    {
      "type": "Feature",
      "properties": {
        "norad_id": 32275,
        "name": "COSMOS 2433 (720)",
        "group": "gnss",
        "lat": -16.174652830998273,
        "lon": -45.00003095104447,
        "alt_km": 19132.313978277067,
        "timestamp": "2025-12-02T17:49:12.269353+00:00",
        "meta_object_name": "COSMOS 2433 (720)",
        "meta_object_id": "2007-052A",
        "meta_epoch": "2025-12-02T07:06:53.876160",
        "meta_mean_motion": 2.13103912,
        "meta_eccentricity": 0.0005574,
        "meta_inclination": 65.6888,
        "meta_ra_of_asc_node": 322.5567,
        "meta_arg_of_pericenter": 252.1881,
        "meta_mean_anomaly": 107.7615,
        "meta_ephemeris_type": 0,
        "meta_classification_type": "U",
        "meta_norad_cat_id": 32275,
        "meta_element_set_no": 999,
        "meta_rev_at_epoch": 14086,
        "meta_bstar": 0,
        "meta_mean_motion_dot": -3.2e-07,
        "meta_mean_motion_ddot": 0,
        "tle_line1": "1 32275U 07052A   25336.29645690 -.00000032  00000+0  00000+0 0  9997",
        "tle_line2": "2 32275  65.6888 322.5567 0005574 252.1881 107.7615  2.13103912140868"
      },
      "geometry": {
        "type": "Point",
        "coordinates": [
          -45.00003095104447,
          -16.174652830998273
        ]
      }
    },
    {
      "type": "Feature",
      "properties": {
        "norad_id": 32276,
        "name": "COSMOS 2432 (719)",
        "group": "gnss",
        "lat": -60.847754893117866,
        "lon": -91.43921010451258,
        "alt_km": 19110.168818534068,
        "timestamp": "2025-12-02T17:49:12.269365+00:00",
        "meta_object_name": "COSMOS 2432 (719)",
        "meta_object_id": "2007-052B",
        "meta_epoch": "2025-12-01T01:47:57.960960",
        "meta_mean_motion": 2.13103067,
        "meta_eccentricity": 0.00112256,
        "meta_inclination": 65.7054,
        "meta_ra_of_asc_node": 322.7218,
        "meta_arg_of_pericenter": 311.1678,
        "meta_mean_anomaly": 136.2023,
        "meta_ephemeris_type": 0,
        "meta_classification_type": "U",
        "meta_norad_cat_id": 32276,
        "meta_element_set_no": 999,
        "meta_rev_at_epoch": 14086,
        "meta_bstar": 0,
        "meta_mean_motion_dot": -2.4e-07,
        "meta_mean_motion_ddot": 0,
        "tle_line1": "1 32276U 07052B   25335.07497640 -.00000024  00000+0  00000+0 0  9994",
        "tle_line2": "2 32276  65.7054 322.7218 0011225 311.1678 136.2023  2.13103067140861"
      },
      "geometry": {
        "type": "Point",
        "coordinates": [
          -91.43921010451258,
          -60.847754893117866
        ]
      }
    },
    {
      "type": "Feature",
      "properties": {
        "norad_id": 32384,
        "name": "GPS BIIRM-5 (PRN 29)",
        "group": "gnss",
        "lat": 53.480201338016336,
        "lon": 32.22579327500304,
        "alt_km": 20133.19500882036,
        "timestamp": "2025-12-02T17:49:12.269377+00:00",
        "meta_object_name": "GPS BIIRM-5 (PRN 29)",
        "meta_object_id": "2007-062A",
        "meta_epoch": "2025-11-30T05:30:32.984352",
        "meta_mean_motion": 2.00576538,
        "meta_eccentricity": 0.00321991,
        "meta_inclination": 55.1933,
        "meta_ra_of_asc_node": 282.1479,
        "meta_arg_of_pericenter": 162.9414,
        "meta_mean_anomaly": 284.6025,
        "meta_ephemeris_type": 0,
        "meta_classification_type": "U",
        "meta_norad_cat_id": 32384,
        "meta_element_set_no": 999,
        "meta_rev_at_epoch": 13152,
        "meta_bstar": 0,
        "meta_mean_motion_dot": -4e-07,
        "meta_mean_motion_ddot": 0,
        "tle_line1": "1 32384U 07062A   25334.22954843 -.00000040  00000+0  00000+0 0  9992",
        "tle_line2": "2 32384  55.1933 282.1479 0032199 162.9414 284.6025  2.00576538131527"
      },
      "geometry": {
        "type": "Point",
        "coordinates": [
          32.22579327500304,
          53.480201338016336
        ]
      }
    }
  ]
}